[{"OBJECT_NAME":"ONEWEB-0268","OBJECT_ID":"2021-060V","EPOCH":"2026-03-09T22:23:37.282560","MEAN_MOTION":13.16593671,"ECCENTRICITY":0.00015606,"INCLINATION":87.9003,"RA_OF_ASC_NODE":248.5218,"ARG_OF_PERICENTER":97.4366,"MEAN_ANOMALY":262.6943,"EPHEMERIS_TYPE":0,"CLASSIFICATION_TYPE":"U","NORAD_CAT_ID":48986,"ELEMENT_SET_NO":999,"REV_AT_EPOCH":22679,"BSTAR":1.8319038e-5,"MEAN_MOTION_DOT":2.0e-7,"MEAN_MOTION_DDOT":0},{"OBJECT_NAME":"DELTA 1 DEB","OBJECT_ID":"1975-052KT","EPOCH":"2026-03-09T15:25:16.155840","MEAN_MOTION":13.31049951,"ECCENTRICITY":0.0082965,"INCLINATION":100.1242,"RA_OF_ASC_NODE":357.6704,"ARG_OF_PERICENTER":123.6633,"MEAN_ANOMALY":356.2314,"EPHEMERIS_TYPE":0,"CLASSIFICATION_TYPE":"U","NORAD_CAT_ID":26839,"ELEMENT_SET_NO":999,"REV_AT_EPOCH":65321,"BSTAR":0.00054637,"MEAN_MOTION_DOT":2.21e-6,"MEAN_MOTION_DDOT":0}]
